{
  "type": "FeatureCollection",
  "features": [
    {
      "type": "Feature",
      "properties": {
        "norad_id": 31195,
        "name": "FENGYUN 1C DEB",
        "group": "fengyun-1c-debris",
        "lat": -61.37766934522781,
        "lon": 31.1525774031399,
        "alt_km": 894.4382816074667,
        "timestamp": "2025-12-07T05:38:10.185068+00:00",
        "meta_object_name": "FENGYUN 1C DEB",
        "meta_object_id": "1999-025BJZ",
        "meta_epoch": "2025-12-04T13:07:42.866688",
        "meta_mean_motion": 14.07972608,
        "meta_eccentricity": 0.0171503,
        "meta_inclination": 98.78,
        "meta_ra_of_asc_node": 12.0861,
        "meta_arg_of_pericenter": 204.2856,
        "meta_mean_anomaly": 155.0161,
        "meta_ephemeris_type": 0,
        "meta_classification_type": "U",
        "meta_norad_cat_id": 31195,
        "meta_element_set_no": 999,
        "meta_rev_at_epoch": 95983,
        "meta_bstar": 0.00023633,
        "meta_mean_motion_dot": 4.16e-06,
        "meta_mean_motion_ddot": 0,
        "tle_line1": "1 31195U 99025BJZ 25338.54702392  .00000416  00000+0  23633-3 0  9997",
        "tle_line2": "2 31195  98.7800  12.0861 0171503 204.2856 155.0161 14.07972608959832"
      },
      "geometry": {
        "type": "Point",
        "coordinates": [
          31.1525774031399,
          -61.37766934522781
        ]
      }
    },
    {
      "type": "Feature",
      "properties": {
        "norad_id": 31196,
        "name": "FENGYUN 1C DEB",
        "group": "fengyun-1c-debris",
        "lat": -73.28726398753547,
        "lon": 144.63335764542265,
        "alt_km": 777.3942861862861,
        "timestamp": "2025-12-07T05:38:10.185077+00:00",
        "meta_object_name": "FENGYUN 1C DEB",
        "meta_object_id": "1999-025BKA",
        "meta_epoch": "2025-12-05T18:44:48.180480",
        "meta_mean_motion": 14.25432464,
        "meta_eccentricity": 0.0057628,
        "meta_inclination": 98.5269,
        "meta_ra_of_asc_node": 353.1977,
        "meta_arg_of_pericenter": 232.6794,
        "meta_mean_anomaly": 126.9127,
        "meta_ephemeris_type": 0,
        "meta_classification_type": "U",
        "meta_norad_cat_id": 31196,
        "meta_element_set_no": 999,
        "meta_rev_at_epoch": 63396,
        "meta_bstar": 0.00091402661,
        "meta_mean_motion_dot": 2.152e-05,
        "meta_mean_motion_ddot": 0,
        "tle_line1": "1 31196U 99025BKA 25339.78111320  .00002152  00000+0  91403-3 0  9999",
        "tle_line2": "2 31196  98.5269 353.1977 0057628 232.6794 126.9127 14.25432464633967"
      },
      "geometry": {
        "type": "Point",
        "coordinates": [
          144.63335764542265,
          -73.28726398753547
        ]
      }
    },
    {
      "type": "Feature",
      "properties": {
        "norad_id": 31198,
        "name": "FENGYUN 1C DEB",
        "group": "fengyun-1c-debris",
        "lat": -3.803286135333028,
        "lon": -94.950580468922,
        "alt_km": 1133.2373164960327,
        "timestamp": "2025-12-07T05:38:10.185087+00:00",
        "meta_object_name": "FENGYUN 1C DEB",
        "meta_object_id": "1999-025BKC",
        "meta_epoch": "2025-12-06T13:02:10.247424",
        "meta_mean_motion": 13.75519444,
        "meta_eccentricity": 0.02041455,
        "meta_inclination": 98.6127,
        "meta_ra_of_asc_node": 85.0012,
        "meta_arg_of_pericenter": 8.1979,
        "meta_mean_anomaly": 352.2427,
        "meta_ephemeris_type": 0,
        "meta_classification_type": "U",
        "meta_norad_cat_id": 31198,
        "meta_element_set_no": 999,
        "meta_rev_at_epoch": 62668,
        "meta_bstar": 0.00015629042,
        "meta_mean_motion_dot": 1.37e-06,
        "meta_mean_motion_ddot": 0,
        "tle_line1": "1 31198U 99025BKC 25340.54317416  .00000137  00000+0  15629-3 0  9998",
        "tle_line2": "2 31198  98.6127  85.0012 0204145   8.1979 352.2427 13.75519444626689"
      },
      "geometry": {
        "type": "Point",
        "coordinates": [
          -94.950580468922,
          -3.803286135333028
        ]
      }
    },
    {
      "type": "Feature",
      "properties": {
        "norad_id": 31199,
        "name": "FENGYUN 1C DEB",
        "group": "fengyun-1c-debris",
        "lat": 7.948886318238788,
        "lon": -37.042148461258115,
        "alt_km": 863.0207133638114,
        "timestamp": "2025-12-07T05:38:10.185097+00:00",
        "meta_object_name": "FENGYUN 1C DEB",
        "meta_object_id": "1999-025BKD",
        "meta_epoch": "2025-12-05T16:58:40.008864",
        "meta_mean_motion": 14.09979297,
        "meta_eccentricity": 0.00635718,
        "meta_inclination": 98.7162,
        "meta_ra_of_asc_node": 322.7056,
        "meta_arg_of_pericenter": 279.9042,
        "meta_mean_anomaly": 258.7122,
        "meta_ephemeris_type": 0,
        "meta_classification_type": "U",
        "meta_norad_cat_id": 31199,
        "meta_element_set_no": 999,
        "meta_rev_at_epoch": 96060,
        "meta_bstar": 0.00037158052,
        "meta_mean_motion_dot": 6.24e-06,
        "meta_mean_motion_ddot": 0,
        "tle_line1": "1 31199U 99025BKD 25339.70740751  .00000624  00000+0  37158-3 0  9999",
        "tle_line2": "2 31199  98.7162 322.7056 0063571 279.9042 258.7122 14.09979297960603"
      },
      "geometry": {
        "type": "Point",
        "coordinates": [
          -37.042148461258115,
          7.948886318238788
        ]
      }
    },
    {
      "type": "Feature",
      "properties": {
        "norad_id": 31201,
        "name": "FENGYUN 1C DEB",
        "group": "fengyun-1c-debris",
        "lat": 78.45824020941996,
        "lon": 150.94814390323197,
        "alt_km": 740.206425911545,
        "timestamp": "2025-12-07T05:38:10.185107+00:00",
        "meta_object_name": "FENGYUN 1C DEB",
        "meta_object_id": "1999-025BKF",
        "meta_epoch": "2025-12-05T13:13:56.277120",
        "meta_mean_motion": 14.35106155,
        "meta_eccentricity": 0.01430996,
        "meta_inclination": 99.0026,
        "meta_ra_of_asc_node": 200.1176,
        "meta_arg_of_pericenter": 12.2515,
        "meta_mean_anomaly": 16.2353,
        "meta_ephemeris_type": 0,
        "meta_classification_type": "U",
        "meta_norad_cat_id": 31201,
        "meta_element_set_no": 999,
        "meta_rev_at_epoch": 97148,
        "meta_bstar": 0.001614262,
        "meta_mean_motion_dot": 5.125e-05,
        "meta_mean_motion_ddot": 0,
        "tle_line1": "1 31201U 99025BKF 25339.55134580  .00005125  00000+0  16143-2 0  9994",
        "tle_line2": "2 31201  99.0026 200.1176 0143099  12.2515  16.2353 14.35106155971484"
      },
      "geometry": {
        "type": "Point",
        "coordinates": [
          150.94814390323197,
          78.45824020941996
        ]
      }
    },
    {
      "type": "Feature",
      "properties": {
        "norad_id": 31202,
        "name": "FENGYUN 1C DEB",
        "group": "fengyun-1c-debris",
        "lat": -14.094994151298623,
        "lon": 29.110514482291226,
        "alt_km": 662.6548519883381,
        "timestamp": "2025-12-07T05:38:10.185116+00:00",
        "meta_object_name": "FENGYUN 1C DEB",
        "meta_object_id": "1999-025BKG",
        "meta_epoch": "2025-12-06T02:19:25.804416",
        "meta_mean_motion": 14.83905937,
        "meta_eccentricity": 0.00678388,
        "meta_inclination": 96.574,
        "meta_ra_of_asc_node": 26.513,
        "meta_arg_of_pericenter": 199.6704,
        "meta_mean_anomaly": 190.2927,
        "meta_ephemeris_type": 0,
        "meta_classification_type": "U",
        "meta_norad_cat_id": 31202,
        "meta_element_set_no": 999,
        "meta_rev_at_epoch": 99056,
        "meta_bstar": 0.0018090493,
        "meta_mean_motion_dot": 0.00015634,
        "meta_mean_motion_ddot": 0,
        "tle_line1": "1 31202U 99025BKG 25340.09682644  .00015634  00000+0  18090-2 0  9994",
        "tle_line2": "2 31202  96.5740  26.5130 0067838 199.6704 190.2927 14.83905937990564"
      },
      "geometry": {
        "type": "Point",
        "coordinates": [
          29.110514482291226,
          -14.094994151298623
        ]
      }
    },
    {
      "type": "Feature",
      "properties": {
        "norad_id": 31205,
        "name": "FENGYUN 1C DEB",
        "group": "fengyun-1c-debris",
        "lat": 30.0372365306737,
        "lon": 68.72475036454166,
        "alt_km": 926.5332312232977,
        "timestamp": "2025-12-07T05:38:10.185126+00:00",
        "meta_object_name": "FENGYUN 1C DEB",
        "meta_object_id": "1999-025BKK",
        "meta_epoch": "2025-12-06T12:37:29.835264",
        "meta_mean_motion": 14.23948876,
        "meta_eccentricity": 0.01616395,
        "meta_inclination": 99.2293,
        "meta_ra_of_asc_node": 73.3754,
        "meta_arg_of_pericenter": 215.219,
        "meta_mean_anomaly": 143.8221,
        "meta_ephemeris_type": 0,
        "meta_classification_type": "U",
        "meta_norad_cat_id": 31205,
        "meta_element_set_no": 999,
        "meta_rev_at_epoch": 97122,
        "meta_bstar": 0.0003123141,
        "meta_mean_motion_dot": 7.69e-06,
        "meta_mean_motion_ddot": 0,
        "tle_line1": "1 31205U 99025BKK 25340.52603976  .00000769  00000+0  31231-3 0  9992",
        "tle_line2": "2 31205  99.2293  73.3754 0161639 215.2190 143.8221 14.23948876971226"
      },
      "geometry": {
        "type": "Point",
        "coordinates": [
          68.72475036454166,
          30.0372365306737
        ]
      }
    }
  ]
}